[
    {
        "Altitude(m)": 559659.2006156188,
        "Argument of Periapsis(deg)": 0.026491964442854003,
        "Eccentricity": 0.0,
        "Inclination(deg)": 53.0,
        "Latitude(deg)": 52.09661060004078,
        "Longitude(deg)": 11.089700300241859,
        "Mean Anomaly(deg)": 80.36647147031036,
        "RAAN(deg)": 39.96057347411206,
        "Satellite Name": "Starlink Shell 1 178",
        "Satellite Number": 178,
        "Semi-Major Axis(m)": 6931778.249405717,
        "Time(s)": 760
    },
    {
        "Altitude(m)": 559689.2658422026,
        "Argument of Periapsis(deg)": 0.02684054292236524,
        "Eccentricity": 0.0,
        "Inclination(deg)": 53.0,
        "Latitude(deg)": 52.22814703746376,
        "Longitude(deg)": 12.044819030257731,
        "Mean Anomaly(deg)": 80.99330267386705,
        "RAAN(deg)": 39.96005470403459,
        "Satellite Name": "Starlink Shell 1 178",
        "Satellite Number": 178,
        "Semi-Major Axis(m)": 6931778.249405717,
        "Time(s)": 770
    },
    {
        "Altitude(m)": 559717.3882979053,
        "Argument of Periapsis(deg)": 0.027189121401876473,
        "Eccentricity": 0.0,
        "Inclination(deg)": 53.0,
        "Latitude(deg)": 52.351224879780155,
        "Longitude(deg)": 13.005649026546962,
        "Mean Anomaly(deg)": 81.62013387742375,
        "RAAN(deg)": 39.95953593395712,
        "Satellite Name": "Starlink Shell 1 178",
        "Satellite Number": 178,
        "Semi-Major Axis(m)": 6931778.249405717,
        "Time(s)": 780
    },
    {
        "Altitude(m)": 559743.5510917817,
        "Argument of Periapsis(deg)": 0.02753769988138771,
        "Eccentricity": 0.0,
        "Inclination(deg)": 53.0,
        "Latitude(deg)": 52.46576001708086,
        "Longitude(deg)": 13.971862780919437,
        "Mean Anomaly(deg)": 82.24696508098049,
        "RAAN(deg)": 39.95901716387964,
        "Satellite Name": "Starlink Shell 1 178",
        "Satellite Number": 178,
        "Semi-Major Axis(m)": 6931778.249405717,
        "Time(s)": 790
    },
    {
        "Altitude(m)": 559767.7385204841,
        "Argument of Periapsis(deg)": 0.02788627836089895,
        "Eccentricity": 0.0,
        "Inclination(deg)": 53.0,
        "Latitude(deg)": 52.571673191494554,
        "Longitude(deg)": 14.94311801839494,
        "Mean Anomaly(deg)": 82.87379628453719,
        "RAAN(deg)": 39.958498393802174,
        "Satellite Name": "Starlink Shell 1 178",
        "Satellite Number": 178,
        "Semi-Major Axis(m)": 6931778.249405717,
        "Time(s)": 800
    },
    {
        "Altitude(m)": 559789.9360759455,
        "Argument of Periapsis(deg)": 0.02823485684041019,
        "Eccentricity": 0.0,
        "Inclination(deg)": 53.0,
        "Latitude(deg)": 52.668890252700514,
        "Longitude(deg)": 15.919058857704812,
        "Mean Anomaly(deg)": 83.50062748809395,
        "RAAN(deg)": 39.957979623724704,
        "Satellite Name": "Starlink Shell 1 178",
        "Satellite Number": 178,
        "Semi-Major Axis(m)": 6931778.249405717,
        "Time(s)": 810
    },
    {
        "Altitude(m)": 559810.1304524485,
        "Argument of Periapsis(deg)": 0.028583435319921423,
        "Eccentricity": 0.0,
        "Inclination(deg)": 53.0,
        "Latitude(deg)": 52.7573424018451,
        "Longitude(deg)": 16.89931705658383,
        "Mean Anomaly(deg)": 84.12745869165063,
        "RAAN(deg)": 39.95746085364723,
        "Satellite Name": "Starlink Shell 1 178",
        "Satellite Number": 178,
        "Semi-Major Axis(m)": 6931778.249405717,
        "Time(s)": 820
    },
    {
        "Altitude(m)": 559828.3095531046,
        "Argument of Periapsis(deg)": 0.028932013799432665,
        "Eccentricity": 0.0,
        "Inclination(deg)": 53.0,
        "Latitude(deg)": 52.83696642215094,
        "Longitude(deg)": 17.88351182715822,
        "Mean Anomaly(deg)": 84.75428989520735,
        "RAAN(deg)": 39.95694208356976,
        "Satellite Name": "Starlink Shell 1 178",
        "Satellite Number": 178,
        "Semi-Major Axis(m)": 6931778.249405717,
        "Time(s)": 830
    },
    {
        "Altitude(m)": 559844.4624957534,
        "Argument of Periapsis(deg)": 0.029280592278943897,
        "Eccentricity": 0.0,
        "Inclination(deg)": 53.0,
        "Latitude(deg)": 52.90770489447243,
        "Longitude(deg)": 18.871251243663426,
        "Mean Anomaly(deg)": 85.38112109876407,
        "RAAN(deg)": 39.95642331349229,
        "Satellite Name": "Starlink Shell 1 178",
        "Satellite Number": 178,
        "Semi-Major Axis(m)": 6931778.249405717,
        "Time(s)": 840
    },
    {
        "Altitude(m)": 559858.5796182519,
        "Argument of Periapsis(deg)": 0.029629170758455132,
        "Eccentricity": 0.0,
        "Inclination(deg)": 53.0,
        "Latitude(deg)": 52.96950639612919,
        "Longitude(deg)": 19.862133725283027,
        "Mean Anomaly(deg)": 86.00795230232077,
        "RAAN(deg)": 39.95590454341481,
        "Satellite Name": "Starlink Shell 1 178",
        "Satellite Number": 178,
        "Semi-Major Axis(m)": 6931778.249405717,
        "Time(s)": 850
    },
    {
        "Altitude(m)": 559870.6524831998,
        "Argument of Periapsis(deg)": 0.02997774923796637,
        "Eccentricity": 0.0,
        "Inclination(deg)": 53.0,
        "Latitude(deg)": 53.02232568144366,
        "Longitude(deg)": 20.855747907884226,
        "Mean Anomaly(deg)": 86.63478350587752,
        "RAAN(deg)": 39.95538577333734,
        "Satellite Name": "Starlink Shell 1 178",
        "Satellite Number": 178,
        "Semi-Major Axis(m)": 6931778.249405717,
        "Time(s)": 860
    },
    {
        "Altitude(m)": 559880.6738820178,
        "Argument of Periapsis(deg)": 0.030326327717477602,
        "Eccentricity": 0.0,
        "Inclination(deg)": 53.0,
        "Latitude(deg)": 53.066123842533926,
        "Longitude(deg)": 21.851675100950537,
        "Mean Anomaly(deg)": 87.26161470943421,
        "RAAN(deg)": 39.954867003259864,
        "Satellite Name": "Starlink Shell 1 178",
        "Satellite Number": 178,
        "Semi-Major Axis(m)": 6931778.249405717,
        "Time(s)": 870
    },
    {
        "Altitude(m)": 559888.637838481,
        "Argument of Periapsis(deg)": 0.030674906196988847,
        "Eccentricity": 0.0,
        "Inclination(deg)": 53.0,
        "Latitude(deg)": 53.10086844903536,
        "Longitude(deg)": 22.84948927985689,
        "Mean Anomaly(deg)": 87.88844591299093,
        "RAAN(deg)": 39.954348233182394,
        "Satellite Name": "Starlink Shell 1 178",
        "Satellite Number": 178,
        "Semi-Major Axis(m)": 6931778.249405717,
        "Time(s)": 880
    },
    {
        "Altitude(m)": 559894.539611608,
        "Argument of Periapsis(deg)": 0.031023484676500086,
        "Eccentricity": 0.0,
        "Inclination(deg)": 53.0,
        "Latitude(deg)": 53.12653366559433,
        "Longitude(deg)": 23.848758808229977,
        "Mean Anomaly(deg)": 88.51527711654762,
        "RAAN(deg)": 39.953829463104924,
        "Satellite Name": "Starlink Shell 1 178",
        "Satellite Number": 178,
        "Semi-Major Axis(m)": 6931778.249405717,
        "Time(s)": 890
    },
    {
        "Altitude(m)": 559898.3756979796,
        "Argument of Periapsis(deg)": 0.03137206315601132,
        "Eccentricity": 0.0,
        "Inclination(deg)": 53.0,
        "Latitude(deg)": 53.14310034614098,
        "Longitude(deg)": 24.849048201086863,
        "Mean Anomaly(deg)": 89.14210832010436,
        "RAAN(deg)": 39.95331069302745,
        "Satellite Name": "Starlink Shell 1 178",
        "Satellite Number": 178,
        "Semi-Major Axis(m)": 6931778.249405717,
        "Time(s)": 900
    },
    {
        "Altitude(m)": 559900.1438334305,
        "Argument of Periapsis(deg)": 0.03172064163552255,
        "Eccentricity": 0.0,
        "Inclination(deg)": 53.0,
        "Latitude(deg)": 53.15055610413621,
        "Longitude(deg)": 25.849918406989527,
        "Mean Anomaly(deg)": 89.7689395236611,
        "RAAN(deg)": 39.95279192294998,
        "Satellite Name": "Starlink Shell 1 178",
        "Satellite Number": 178,
        "Semi-Major Axis(m)": 6931778.249405717,
        "Time(s)": 910
    },
    {
        "Altitude(m)": 559899.8429941527,
        "Argument of Periapsis(deg)": 0.0320692201150338,
        "Eccentricity": 0.0,
        "Inclination(deg)": 53.0,
        "Latitude(deg)": 53.14889535819487,
        "Longitude(deg)": 26.850928625646652,
        "Mean Anomaly(deg)": 90.3957707272178,
        "RAAN(deg)": 39.95227315287251,
        "Satellite Name": "Starlink Shell 1 178",
        "Satellite Number": 178,
        "Semi-Major Axis(m)": 6931778.249405717,
        "Time(s)": 920
    },
    {
        "Altitude(m)": 559897.4733971909,
        "Argument of Periapsis(deg)": 0.032417798594545036,
        "Eccentricity": 0.0,
        "Inclination(deg)": 53.0,
        "Latitude(deg)": 53.13811935268966,
        "Longitude(deg)": 27.851638138455534,
        "Mean Anomaly(deg)": 91.0226019307745,
        "RAAN(deg)": 39.95175438279503,
        "Satellite Name": "Starlink Shell 1 178",
        "Satellite Number": 178,
        "Semi-Major Axis(m)": 6931778.249405717,
        "Time(s)": 930
    },
    {
        "Altitude(m)": 559893.0365003301,
        "Argument of Periapsis(deg)": 0.03276637707405627,
        "Eccentricity": 0.0,
        "Inclination(deg)": 53.0,
        "Latitude(deg)": 53.1182361531541,
        "Longitude(deg)": 28.851606629302385,
        "Mean Anomaly(deg)": 91.64943313433122,
        "RAAN(deg)": 39.95123561271756,
        "Satellite Name": "Starlink Shell 1 178",
        "Satellite Number": 178,
        "Semi-Major Axis(m)": 6931778.249405717,
        "Time(s)": 940
    }
]